sat39364
1 39364U 13059B   20046.79943100  .00000668  00000-0  27322-4 0  9998
2 39364  97.2771 115.4034 0049755 122.2968 238.3105 15.26685262350001
